Name,address,telephone,openhours,tag,category
ATTLEBORO SOCIAL SECURITY OFFICE,"106 Pleasant St, Attleboro, MA 02703",1-888-655-6469 or TTY: 1-508-226-2051,"Monday 9:00am - 4:00pmTuesday 9:00am - 4:00pmWednesday 9:00am - 12:00pmThursday 9:00am - 4:00pmFriday 9:00am - 4:00pmSaturday ClosedSunday Closed",social security office,Community
Boston Social Security Office 02222,"10 Causeway Street, Boston, MA 02222",1-800-772-1213 or TTY: 1-800-325-0778,"Monday 9:00am - 4:00pmTuesday 9:00am - 4:00pmWednesday 9:00am - 12:00pmThursday 9:00am - 4:00pmFriday 9:00am - 4:00pmSaturday ClosedSunday Closed",social security office,Community
BROCKTON SOCIAL SECURITY OFFICE 02301,"30 Christy's Drive Brockton, Massachusetts 02301",1-888-717-1524 or TTY: 1-508-588-7992,"Monday 9:00am - 4:00pmTuesday 9:00am - 4:00pmWednesday 9:00am - 12:00pmThursday 9:00am - 4:00pmFriday 9:00am - 4:00pmSaturday ClosedSunday Closed",social security office,Community
Cambridge Social Security Office 02138,"10 Fawcett St First Flr Cambridge, Massachusetts 02138",1-800-772-1213 or TTY: 1-800-325-0778,"Monday 9:00am - 4:00pmTuesday 9:00am - 4:00pmWednesday 9:00am - 12:00pmThursday 9:00am - 4:00pmFriday 9:00am - 4:00pmSaturday ClosedSunday Closed",social security office,Community
Dorchester Social Security Office 02122,"115 Freeport St Dorchester, MA 02122",1-800-772-1213 or TTY: 1-800-325-0778,"Monday 9:00am - 4:00pmTuesday 9:00am - 4:00pmWednesday 9:00am - 12:00pmThursday 9:00am - 4:00pmFriday 9:00am - 4:00pmSaturday ClosedSunday Closed",social security office,Community
East Falmouth Social Security Office 02536,"48 Research Rd East Falmouth, MA 02536",1-855-881-0212 or TTY: 1-508-457-5096,"Monday 9:00am - 4:00pmTuesday 9:00am - 4:00pmWednesday 9:00am - 12:00pmThursday 9:00am - 4:00pmFriday 9:00am - 4:00pmSaturday ClosedSunday Closed",social security office,Community
Fall River Social Security Office 02720,"400 North Main Street Fall River, MA 02720",1-866-964-3967 or TTY: 1-508-324-0864,"Monday 9:00am - 4:00pmTuesday 9:00am - 4:00pmWednesday 9:00am - 12:00pmThursday 9:00am - 4:00pmFriday 9:00am - 4:00pmSaturday ClosedSunday Closed",social security office,Community
Fitchburg Social Security Office 01420,"881 Main St 1st Floor Fitchburg, MA 01420",1-877-319-0728 or TTY: 1-800-325-0778,"Monday 9:00am - 4:00pmTuesday 9:00am - 4:00pmWednesday 9:00am - 12:00pmThursday 9:00am - 4:00pmFriday 9:00am - 4:01pmSaturday ClosedSunday Closed",social security office,Community
Framingham Social Security Office 01702,"One Clarks Hill Framingham, MA 01702",1-844-587-1390 or TTY: 1-800-325-0778,"Monday 9:00am - 4:00pmTuesday 9:00am - 4:00pmWednesday 9:00am - 12:00pmThursday 9:00am - 4:00pmFriday 9:00am - 4:02pmSaturday ClosedSunday Closed",social security office,Community
Gardner Social Security Office 01440,"354 Main St Ste 2 Gardner, MA 01440",1-877-628-6580 or TTY: 1-978-630-2112,"Monday 9:00am - 4:00pmTuesday 9:00am - 4:00pmWednesday 9:00am - 12:00pmThursday 9:00am - 4:00pmFriday 9:00am - 4:03pmSaturday ClosedSunday Closed",social security office,Community
Hanover Social Security Office 02339,"198 Columbia Rd Ste 1Hanover, Massachusetts 02339",1-877-444-6898 or TTY: 1-781-829-9297,"Monday 9:00am - 4:00pmTuesday 9:00am - 4:00pmWednesday 9:00am - 12:00pmThursday 9:00am - 4:00pmFriday 9:00am - 4:04pmSaturday ClosedSunday Closed",social security office,Community
Haverhill Social Security Office 01830,"367 Main St Haverhill, Massachusetts 01830",1-866-964-4324 or TTY: 1-800-325-0778,"Monday 9:00am - 4:00pmTuesday 9:00am - 4:00pmWednesday 9:00am - 12:00pmThursday 9:00am - 4:00pmFriday 9:00am - 4:05pmSaturday ClosedSunday Closed",social security office,Community
Holyoke Social Security Office 01040,"200 High Street Holyoke, MA 01040",1-877-480-4989 or TTY: 1-413-534-0901,"Monday 9:00am - 4:00pmTuesday 9:00am - 4:00pmWednesday 9:00am - 12:00pmThursday 9:00am - 4:00pmFriday 9:00am - 4:06pmSaturday ClosedSunday Closed",social security office,Community
Hyannis Social Security Office 02601,"259 North St Hyannis, MA 02601",1-866-467-0440 or TTY: 1-508-790-3974,"Monday 9:00am - 4:00pmTuesday 9:00am - 4:00pmWednesday 9:00am - 12:00pmThursday 9:00am - 4:00pmFriday 9:00am - 4:07pmSaturday ClosedSunday Closed",social security office,Community
Lawrence Social Security Office 01843,"439 S Union St Lawrence, MA 01843",1-877-669-3127 or TTY: 1-978-794-9696,"Monday 9:00am - 4:00pmTuesday 9:00am - 4:00pmWednesday 9:00am - 12:00pmThursday 9:00am - 4:00pmFriday 9:00am - 4:08pmSaturday ClosedSunday Closed",social security office,Community
Lowell Social Security Office 01852,"151 Warren St Lowell, MA 01852",1-877-746-9850 or TTY: 1-978-458-5702,"Monday 9:00am - 4:00pmTuesday 9:00am - 4:00pmWednesday 9:00am - 12:00pmThursday 9:00am - 4:00pmFriday 9:00am - 4:09pmSaturday ClosedSunday Closed",social security office,Community
Lynn Social Security Office 01901,"140 Union Street Lynn, MA 01901",1-800-772-1213 or TTY: 1-800-325-0778,"Monday 9:00am - 4:00pmTuesday 9:00am - 4:00pmWednesday 9:00am - 12:00pmThursday 9:00am - 4:00pmFriday 9:00am - 4:10pmSaturday ClosedSunday Closed",social security office,Community
Malden Social Security Office 02148,"192 Commercial St Malden, MA 02148",1-800-772-1213 or TTY: 1-800-325-0778,"Monday 9:00am - 4:00pmTuesday 9:00am - 4:00pmWednesday 9:00am - 12:00pmThursday 9:00am - 4:00pmFriday 9:00am - 4:11pmSaturday ClosedSunday Closed",social security office,Community
New Bedford Social Security Office 02740,"53 North 6th Street New Bedford, MA 02740",1-866-964-7413 or TTY: 1-508-979-8229,"Monday 9:00am - 4:00pmTuesday 9:00am - 4:00pmWednesday 9:00am - 12:00pmThursday 9:00am - 4:00pmFriday 9:00am - 4:12pmSaturday ClosedSunday Closed",social security office,Community
North Adams Social Security Office 01247,"96 Marshall Street North Adams, MA 01247",1-877-319-5709 or TTY: 1-413-664-6568,"Monday 9:00am - 4:00pmTuesday 9:00am - 4:00pmWednesday 9:00am - 12:00pmThursday 9:00am - 4:00pmFriday 9:00am - 4:13pmSaturday ClosedSunday Closed",social security office,Community
Norwood Social Security Office 02062,"One Edgewater Drive Norwood, MA 02062",1-800-772-1213 or TTY: 1-800-325-0778,"Monday 9:00am - 4:00pmTuesday 9:00am - 4:00pmWednesday 9:00am - 12:00pmThursday 9:00am - 4:00pmFriday 9:00am - 4:14pmSaturday ClosedSunday Closed",social security office,Community
Pittsfield Social Security Office 01201,"78 Center St Pittsfield, MA 01201",1-866-446-7111 or TTY: 1-800-325-0778,"Monday 9:00am - 4:00pmTuesday 9:00am - 4:00pmWednesday 9:00am - 12:00pmThursday 9:00am - 4:00pmFriday 9:00am - 4:15pmSaturday ClosedSunday Closed",social security office,Community
Quincy Social Security Office 02169,"1250 Hancock St Quincy, MA 02169",1-800-772-1213 or TTY: 1-800-325-0778,"Monday 9:00am - 4:00pmTuesday 9:00am - 4:00pmWednesday 9:00am - 12:00pmThursday 9:00am - 4:00pmFriday 9:00am - 4:16pmSaturday ClosedSunday Closed",social security office,Community
Roslindale Social Security Office 02131,"4238 Washington St Roslindale, MA 02131",1-800-772-1213 or TTY: 1-800-325-0778,"Monday 9:00am - 4:00pmTuesday 9:00am - 4:00pmWednesday 9:00am - 12:00pmThursday 9:00am - 4:00pmFriday 9:00am - 4:17pmSaturday ClosedSunday Closed",social security office,Community
Roxbury Social Security Office 02119,"10 Malcolm X Blvd Roxbury, MA 02119",1-800-772-1213 or TTY: 1-800-325-0778,"Monday 9:00am - 4:00pmTuesday 9:00am - 4:00pmWednesday 9:00am - 12:00pmThursday 9:00am - 4:00pmFriday 9:00am - 4:18pmSaturday ClosedSunday Closed",social security office,Community
Salem Social Security Office 01970,"10 Federal St Salem, MA 01970",1-800-772-1213 or TTY: 1-800-325-0778,"Monday 9:00am - 4:00pmTuesday 9:00am - 4:00pmWednesday 9:00am - 12:00pmThursday 9:00am - 4:00pmFriday 9:00am - 4:19pmSaturday ClosedSunday Closed",social security office,Community
Springfield Social Security Office 01104,"70 Bond Street Springfield, MA 01104",1-866-964-5061 or TTY: 1-413-731-1491,"Monday 9:00am - 4:00pmTuesday 9:00am - 4:00pmWednesday 9:00am - 12:00pmThursday 9:00am - 4:00pmFriday 9:00am - 4:20pmSaturday ClosedSunday Closed",social security office,Community
Taunton Social Security Office 02780,"104 Dean St Taunton, MA 02780",1-877-505-4546 or TTY: 1-508-821-3325,"Monday 9:00am - 4:00pmTuesday 9:00am - 4:00pmWednesday 9:00am - 12:00pmThursday 9:00am - 4:00pmFriday 9:00am - 4:21pmSaturday ClosedSunday Closed",social security office,Community
Waltham Social Security Office 02452,"135 Beaver Street Waltham, MA 02452",1-800-772-1213 or TTY: 1-800-325-0778,"Monday 9:00am - 4:00pmTuesday 9:00am - 4:00pmWednesday 9:00am - 12:00pmThursday 9:00am - 4:00pmFriday 9:00am - 4:22pmSaturday ClosedSunday Closed",social security office,Community
Worcester Social Security Office 01608,"51 Myrtle St Worcester, MA 01608",1-866-331-9069 or TTY: 1-800-325-0778,"Monday 9:00am - 4:00pmTuesday 9:00am - 4:00pmWednesday 9:00am - 12:00pmThursday 9:00am - 4:00pmFriday 9:00am - 4:23pmSaturday ClosedSunday Closed",social security office,Community
BCYF Blackstone,"50 West Brookline Street,Boston,MA,02118,United States",617-635-5162,"  Monday through Friday, 2 - 9 p.m.; Saturday, 9 - 5 p.m. Our hours may vary during the summer and school vacations.          ","adult education, ballet, basketball, and computer lab.",Education&Community
BCYF Charlestown,"255 Medford Street,Boston,MA,02129,United States",617-635-5169,"  Monday through Friday, 2 - 9 p.m.; Saturday, 9 - 5 p.m. Our hours may vary during the summer and school vacations.          ","adult Zumba, baseball, and computer lab.",Education&Community
BCYF Cleveland,"11 Charles Street,Boston,MA,02122,United States",617-635-5141,"  Monday through Friday, 2 - 9 p.m.; Saturday, 9 - 5 p.m. Our hours may vary during the summer and school vacations.          ","adult education, after school homework help, and basketball.",Education&Community
BCYF Clougherty Pool,"331 Bunker Hill Street,Boston,MA,02129,United States",617-635-5173,"  Monday through Friday, 2 - 9 p.m.; Saturday, 9 - 5 p.m. Our hours may vary during the summer and school vacations.          ",City's outdoor pools that open in the summer.,Education&Community
BCYF Condon,"200 D Street,Boston,MA,02127,United States",617-635-5100,"  Monday through Friday, 2 - 9 p.m.; Saturday, 9 - 5 p.m. Our hours may vary during the summer and school vacations.          ","adult lap swim, water aerobics, and basketball.",Education&Community
BCYF Curley,"1663 Columbia Road,Boston,MA,02127,United States",617-635-5104,"  Monday through Friday, 2 - 9 p.m.; Saturday, 9 - 5 p.m. Our hours may vary during the summer and school vacations.          ","fitness programs, a Family Friendly Beach, older adult activities, a teen center, and more.",Education&Community
BCYF Curtis Hall,"20 South Street,Boston,MA,02130,United States",617-635-5193,"  Monday through Friday, 2 - 9 p.m.; Saturday, 9 - 5 p.m. Our hours may vary during the summer and school vacations.          ","basketball, adult education, and aqua aerobics.",Education&Community
BCYF Draper Pool,"5275 Washington Street,Boston,MA,02132,United States",617-635-5021,"  Monday through Friday, 2 - 9 p.m.; Saturday, 9 - 5 p.m. Our hours may vary during the summer and school vacations.          ",early intervention swim program and lap swim.,Education&Community
BCYF Flaherty Pool,"160 Florence Street,Boston,MA,02131,United States",617-635-5181,"  Monday through Friday, 2 - 9 p.m.; Saturday, 9 - 5 p.m. Our hours may vary during the summer and school vacations.          ","swim lessons, lap swim, and a swim team.",Education&Community
BCYF Gallivan,"61 Woodruff Way,Boston,MA,02126,United States",617-635-5252 ,"  Monday through Friday, 2 - 9 p.m.; Saturday, 9 - 5 p.m. Our hours may vary during the summer and school vacations.          ","cricket club, eScience tutoring, and flag and tag football.",Education&Community
BCYF Golden Age Senior Center,"382 Main Street,Boston,MA,02129,United States",617-635-5175,"  Monday through Friday, 2 - 9 p.m.; Saturday, 9 - 5 p.m. Our hours may vary during the summer and school vacations.          ","bingo, book club, and crochet",Education&Community
BCYF Grove Hall Senior Center,"51 Geneva Avenue,Boston,MA,02121,United States",617-635-1484,"  Monday through Friday, 2 - 9 p.m.; Saturday, 9 - 5 p.m. Our hours may vary during the summer and school vacations.          ","bingo, book club, and crochet",Education&Community
BCYF Hennigan,"200 Heath Street,Boston,MA,02130,United States",617-635-5198,"  Monday through Friday, 2 - 9 p.m.; Saturday, 9 - 5 p.m. Our hours may vary during the summer and school vacations.          ","before-school program, computer lab, and Friday Night Soccer.",Education&Community
BCYF Holland,"85 Olney Street,Boston,MA,02121,United States",617-635-5144,"  Monday through Friday, 2 - 9 p.m.; Saturday, 9 - 5 p.m. Our hours may vary during the summer and school vacations.          ","adult basketball, soccer, and an after-school enrichment program.",Education&Community
BCYF Hyde Park,"1179 River Street,,Boston,MA,02136,United States",617-635-5178,"  Monday through Friday, 2 - 9 p.m.; Saturday, 9 - 5 p.m. Our hours may vary during the summer and school vacations.          ","college tours, community service, and computer lab.",Education&Community
BCYF Jackson/Mann,"500 Cambridge Street,Boston,MA,02134,United States",617-635-5153,"  Monday through Friday, 2 - 9 p.m.; Saturday, 9 - 5 p.m. Our hours may vary during the summer and school vacations.          ","Bollywood dance, computer lab, and cooking class.",Education&Community
BCYF Leahy/Holloran,"1 Worrell Street,Boston,MA,02122,United States",617-635-5150,"  Monday through Friday, 2 - 9 p.m.; Saturday, 9 - 5 p.m. Our hours may vary during the summer and school vacations.          ","adult Yoga, boxing fitness, and Boy Scouts.",Education&Community
BCYF Madison Park,"55 Malcolm X Boulevard,Boston,MA,02120,United States",617-635-5206,"  Monday through Friday, 2 - 9 p.m.; Saturday, 9 - 5 p.m. Our hours may vary during the summer and school vacations.          ",swim team and indoor sports.,Education&Community
BCYF Mason Pool,"159 Norfolk Avenue,Boston,MA,02119,United States",617-635-5241,"  Monday through Friday, 2 - 9 p.m.; Saturday, 9 - 5 p.m. Our hours may vary during the summer and school vacations.          ","Baby Splash, First Strokes, and swim lessons.",Education&Community
BCYF Mattahunt,"100 Hebron Street,Boston,MA,02126,United States",617-635-5159,"  Monday through Friday, 2 - 9 p.m.; Saturday, 9 - 5 p.m. Our hours may vary during the summer and school vacations.          ","afterschool programs, pool, and computer lab.",Education&Community
BCYF Menino,"125 Brookway Road,Boston,MA,02131,United States",617-635-5256,"  Monday through Friday, 2 - 9 p.m.; Saturday, 9 - 5 p.m. Our hours may vary during the summer and school vacations.          ","a robotics team, rock wall clubs, and computer classes.",Education&Community
BCYF Mildred Avenue,"5 Mildred Avenue,Boston,MA,02126,United States",617-635-1328,"  Monday through Friday, 2 - 9 p.m.; Saturday, 9 - 5 p.m. Our hours may vary during the summer and school vacations.          ","basketball, computer lab, and karate.",Education&Community
BCYF Mirabella Pool,"475 Commercial Street,Boston,MA,02113,United States",617-635-1276,"  Monday through Friday, 2 - 9 p.m.; Saturday, 9 - 5 p.m. Our hours may vary during the summer and school vacations.          ",City's outdoor pools ,Education&Community
BCYF Nazzaro,"30 North Bennet Street,Boston,MA,02113,United States",617-635-5166 ,"  Monday through Friday, 2 - 9 p.m.; Saturday, 9 - 5 p.m. Our hours may vary during the summer and school vacations.          ","arts and crafts, bowling, and an after-school program.",Education&Community
BCYF Ohrenberger,"175 West Boundary Road,Boston,MA,02132,United States",617-635-5183,"  Monday through Friday, 2 - 9 p.m.; Saturday, 9 - 5 p.m. Our hours may vary during the summer and school vacations.          ",fitness classes and youth sports.,Education&Community
BCYF Paris Street,"112 Paris Street,Boston,MA,02128,United States",617-635-5125,"  Monday through Friday, 2 - 9 p.m.; Saturday, 9 - 5 p.m. Our hours may vary during the summer and school vacations.          ","adult and youth sports, and computer access.",Education&Community
BCYF Perkins,"155 Talbot Avenue,Boston,MA,02124,United States",617-635-5146,"  Monday through Friday, 2 - 9 p.m.; Saturday, 9 - 5 p.m. Our hours may vary during the summer and school vacations.          ","adult and youth basketball, and swim lessons.",Education&Community
BCYF Pino,"86 Boardman Street,Boston,MA,02128,United States",617-635-5120,"  Monday through Friday, 2 - 9 p.m.; Saturday, 9 - 5 p.m. Our hours may vary during the summer and school vacations.          "," adult and youth sports, and a gym.",Education&Community
BCYF Quincy,"885 Washington Street,Boston,MA,02111,United States",617-635-5129,"  Monday through Friday, 2 - 9 p.m.; Saturday, 9 - 5 p.m. Our hours may vary during the summer and school vacations.          ","volleyball, an after-school enrichment program, and a swim team.",Education&Community
BCYF Roche,"1716 Centre Street,Boston,MA,02132,United States",617-635-5066,"  Monday through Friday, 2 - 9 p.m.; Saturday, 9 - 5 p.m. Our hours may vary during the summer and school vacations.          ","adult yoga, Zumba, a gym, and youth karate.",Education&Community
BCYF Roslindale,"6 Cummins Highway,Boston,MA,02131,United States",617-635-5185,"  Monday through Friday, 2 - 9 p.m.; Saturday, 9 - 5 p.m. Our hours may vary during the summer and school vacations.          ","basketball, a gym, and after-school programs.",Education&Community
BCYF Shelburne,"2730 Washington Street,Boston,MA,02119,United States",617-635-5213,"  Monday through Friday, 2 - 9 p.m.; Saturday, 9 - 5 p.m. Our hours may vary during the summer and school vacations.          "," adult and youth fitness classes, and computer classes.",Education&Community
BCYF Tobin,"1481 Tremont Street,Boston,MA,02120,United States",617-635-5216,"  Monday through Friday, 2 - 9 p.m.; Saturday, 9 - 5 p.m. Our hours may vary during the summer and school vacations.          ",a gym and adult and youth sports.,Education&Community
BCYF Tynan,"650 East Fourth Street,Boston,MA,02127,United States",617-635-5110,"  Monday through Friday, 2 - 9 p.m.; Saturday, 9 - 5 p.m. Our hours may vary during the summer and school vacations.          ","volleyball, basketball, and after-school programs.",Education&Community
Amesbury WIC Program,"44 Friend Street, Amesbury, MA 01913",(978) 388-2575,Regular hours     Wednesday:       9:00 am-5:00 pm              2nd Wednesday of the month     Wednesday:       10:30 am-6:30 pm              Last Wednesday of month Closed for staff meeting.          Saturdays One Saturday every three months.      ,WIC,community
Andover/North Andover WIC Program,"165 Haverhill Street, Andover, MA 01810",(978) 681-4968,    Thursday:       10:00 am-6:00 pm          ,WIC,community
Arlington WIC Program,"7 Central Street, Suite 160, Arlington, MA 02476",(781) 646-2032,Regular hours     Tuesday:       10:00 am-6:30 pm              Non-typical hours Closed 2nd and 5th Tuesday of the month.      ,WIC,community
Attleboro WIC Program,"95 Pine St., Attleboro, MA 02703",(508) 226-4543,    Monday:       9:00 am-4:30 pm      Tuesday:       11:00 am-6:30 pm      Thursday - Friday:       9:00 am-4:30 pm          ,WIC,community
Bedford WIC Program (Military only),"188 Marrett Street, Building 1540, Hanscom AFB, MA 01731",(781) 862-1420,1st and 3rd Wednesday 8:30 am - 12:30 pm       ,WIC,community
Berkshire North WIC Program main clinic,"165 Tor Court, Pittsfield, MA 01201",(413) 445-9429,"Regular Hours     Monday - Wednesday:       8:00 am-4:30 pm      Friday:       8:00 am-4:30 pm              Non-typical hours Open late 2nd &amp; 4th Mondays of the month, 10 a.m.C6:30 p.m. Please call for Saturday hours.      ",WIC,community
Berkshire South WIC Program main clinic,"442 Stockbridge Road, Great Barrington, MA 01230",(413) 528-0457,    Monday - Thursday:       9:00 am-5:00 pm      Friday:       9:00 am-4:00 pm          ,WIC,community
Beverly WIC Program,"4 Ocean Street, Beverly, MA 01915",(978) 922-2110,Regular hours     Thursday:       9:00 am-5:00 pm              3rd Thursday of the month     Thursday:       10:30 am-6:30 pm              Saturdays Open 1 Saturday every 3 months.      ,WIC,community
Boston WIC Program - South Street,"145 South Street, Boston, MA 02111",(617) 521-6777,    Monday - Friday:       9:00 am-5:00 pm      Saturday:       9:00 am-1:00 pm          ,WIC,community
Boston WIC Program - Tufts Medical Center,"755 Washington Street, Plaza level, Boston, MA 02111",(617) 636-7552,    Monday - Tuesday:       1:00 pm-4:30 pm      Wednesday:       9:00 am-5:00 pm          ,WIC,community
Brighton WIC Program,"640 Washington Street, Brighton, MA 02135",(617) 254-0492,    Monday:       8:30 am-5:00 pm      Tuesday:       9:30 am-6:00 pm      Thursday:       9:00 am-5:30 pm      Friday:       8:30 am-5:00 pm          ,WIC,community
Brockton WIC Program main clinic,"795 Pleasant Street, Brockton, MA 02301",(508) 588-8241,Regular hours     Monday - Thursday:       8:00 am-6:00 pm      Friday:       8:00 am-2:00 pm      Saturday:       8:00 am-4:00 pm              Walk-in hours Please call for walk-in availability.      ,WIC,community
Cambridge WIC Program,"119 Windsor Street, Cambridge, MA 02139",(617) 665-3750,Regular hours     Monday:       11:00 am-7:30 pm      Tuesday:       10:00 am-6:30 pm      Thursday:       8:30 am-5:00 pm              Non-typical hours 1st Saturday of the month: 8 a.m.-4 p.m.; closed last Wednesday of the month.      ,WIC,community
Cambridge/Somerville WIC Program main clinic,"366 Broadway, Somerville, MA 02145",(617) 575-5330,"Regular hours     Monday:       11:00 am-7:30 pm      Tuesday:       10:00 am-6:30 pm      Wednesday - Thursday:       8:30 am-5:00 pm      Friday:       8:00 am-4:30 pm              Non-typical hours Open the 1st Saturday every month, 8 a.m.C4 p.m. Closed the last Wednesday of each month.      ",WIC,community
Cape Cod WIC Program main clinic,"1019 Iyanough Road, Hyannis, MA 02601",(508) 771-7896,"Regular hours     Monday:       8:30 am-7:00 pm      Tuesday:       8:30 am-4:30 pm      Wednesday:       11:00 am-7:00 pm      Thursday:       8:30 am-4:30 pm      Friday:       9:00 am-2:00 pm              Non-typical hours Open 1 Saturday per month, 9 a.m.-2 p.m. Please call for appointment availability.      ",WIC,community
Charlestown WIC Program,"73 High St., Charlestown, MA 02129",(617) 724-8198,    Tuesday:       8:30 am-5:00 pm      Thursday:       8:30 am-7:00 pm          ,WIC,community
Chelsea WIC Program,"151 Everett Ave, 3rd Floor, Chelsea, MA 02150",(617) 887-4340,    Monday - Wednesday:       8:30 am-5:00 pm      Thursday:       8:30 am-7:00 pm      Friday:       8:30 am-3:00 pm      Saturday:       8:30 am-2:00 pm          ,WIC,community
Dorchester North/Mattapan WIC Program main clinic,"500 Columbia Road, Dorchester, MA 02125",(617) 825-8994,"Regular hours     Monday:       10:30 am-6:30 pm      Tuesday:       9:00 am-5:00 pm      Wednesday:       11:30 am-7:30 pm      Thursday:       9:00 am-5:00 pm      Friday:       8:30 am-4:30 pm      Saturday:       9:00 am-1:00 pm              Non-typical hours Open the 1st Saturday of every month (excluding holidays), 9 a.m.C1 p.m.      ",WIC,community
Dorchester South/South Boston WIC Program main clinic,"1353 Dorchester Ave., Dorchester, MA 02130",(617) 825-0805,    Tuesday:       9:00 am-7:00 pm      Wednesday:       9:00 am-5:00 pm      Thursday:       9:00 am-7:00 pm      Friday:       9:00 am-4:00 pm      Saturday:       9:00 am-1:00 pm          ,WIC,community
East Boston WIC Program main clinic,"120 Liverpool St., East Boston, MA 02128",(617) 568-6440,"Weekly hours     Monday:       9:00 am-5:45 pm      Tuesday:       10:00 am-6:00 pm      Wednesday:       9:00 am-5:00 pm      Thursday:       9:00 am-4:00 pm      Friday:       8:30 am-3:30 pm              Weekend hours Open 2 Saturdays per month, 8:30 a.m.C3:30 p.m.      ",WIC,community
East Brookfield WIC Program,"367 Main Street, East Brookfield, MA 01515",(508) 867-0364,"Regular hours     Wednesday:       8:30 am-4:30 pm              Thursdays 2nd, 3rd and 4th Thursday of every month 11:30 a.m.-7:30 p.m.      ",WIC,community
Fairhaven WIC Program,"275 Main Street, Fairhaven, MA 02719",(508) 997-1500,2nd Monday: 9 a.mC12 p.m.      ,WIC,community
Fall River WIC Program main clinic,"387 Quarry St., Suite 101, Fall River, MA 02723",(508) 679-9349,    Monday:       8:00 am-5:00 pm      Tuesday:       8:00 am-7:00 pm      Wednesday - Thursday:       8:00 am-5:00 pm      Friday:       8:00 am-4:00 pm          ,WIC,community
Framingham/Waltham WIC Program main clinic,"7 Bishop St., 1st Floor, Framingham, MA 01702",(508) 620-1445,    Monday:       8:30 am-4:30 pm      Tuesday:       11:30 am-7:00 pm      Wednesday - Friday:       8:30 am-4:30 pm          ,WIC,community
Franklin/Hampshire/North Quabbin WIC Program main clinic,"393 Main St., Greenfield, MA 01301",(413) 376-1160 ext.160,    Monday:       10:30 am-6:30 pm      Tuesday:       8:30 am-4:30 pm      Wednesday:       9:30 am-6:30 pm      Friday:       8:00 am-3:00 pm          ,WIC,community
Gloucester WIC Program,"302 Washington Street, Lower level of Health Center, Gloucester, MA 01930",(978) 281-4540,Regular hours     Tuesday:       9:00 am-5:00 pm              Non-typical hours Some Mondays 9 a.m.-5 p.m.; 1st Tuesday of Month 10:30 a.m.-6:30 p.m.      ,WIC,community
Harwich WIC Program,"263 South Street, Harwich, MA 02645",(508) 430-7865,    Wednesday:       9:00 am-4:00 pm              Non-typical hours 2nd Thursday 9 a.m.-2 p.m.      ,WIC,community
Haverhill WIC Program,"3 Washington Square, 2nd floor, Haverhill, MA 01830",(978) 374-2191,Weekly hours     Monday:       9:00 am-5:00 pm      Tuesday:       10:30 am-6:30 pm      Wednesday - Friday:       9:00 am-5:00 pm              Weekends One Saturday per month: 9 a.m.-2 p.m.      ,WIC,community
Holyoke/Chicopee WIC Program main clinic,"300 High St., Holyoke, MA 01040",(413) 534-2460,Winter hours (beginning in November)     Monday:       8:30 am-4:30 pm      Tuesday:       9:00 am-5:00 pm      Wednesday:       8:30 am-4:30 pm      Thursday:       9:00 am-5:00 pm      Friday:       8:00 am-4:00 pm              Summer hours     Monday:       10:00 am-6:00 pm      Tuesday:       9:00 am-5:00 pm      Wednesday:       8:30 am-4:30 pm      Thursday:       9:00 am-5:00 pm      Friday:       8:00 am-4:00 pm          ,WIC,community
Jamaica Plain WIC Program,"75 Bickford Street, Jamaica Plain, MA 02130",(617) 919-7885,    Monday:       8:30 am-5:00 pm      Wednesday:       10:00 am-5:00 pm      Thursday:       8:30 am-5:00 pm          ,WIC,community
Jamaica Plain WIC Program - JP Health Center,"10A Green Street, Jamaica Plain, MA 02130",(617) 983-4131,    Friday:       8:30 am-5:00 pm          ,WIC,community
Jamaica Plain/Brighton WIC Program main clinic,"3297 Washington St., Jamaica Plain, MA 02130",(617) 983-6086,    Monday - Tuesday:       8:00 am-7:00 pm      Wednesday:       9:30 am-7:00 pm      Thursday:       8:00 am-7:00 pm      Friday:       8:00 am-5:00 pm      Saturday:       8:30 am-12:00 pm          ,WIC,community
Lawrence WIC Program main clinic,"305 Essex St., Lawrence, MA 01840",(978) 681-4960,Weekly hours     Monday:       8:30 am-4:30 pm      Tuesday:       10:00 am-6:00 pm      Wednesday:       8:30 am-4:30 pm      Thursday:       10:00 am-6:00 pm      Friday:       8:30 am-4:30 pm              Weekends Open 1 Saturday per month. Check agency calendar for dates.      ,WIC,community
Lowell WIC Program main clinic,"45-47 Kirk St., 1st Floor, Lowell, MA 01852",(978) 454-6397,    Monday - Tuesday:       9:00 am-5:00 pm      Wednesday:       11:00 am-7:00 pm      Thursday:       9:00 am-5:00 pm      Friday:       8:30 am-4:30 pm          ,WIC,community
Mansfield WIC Program C Town Hall,"6 Park Row, 3rd Floor, Mansfield, MA 02048",(508) 823-6346,"1st Wednesday of the month, 9 a.m.-4:30 p.m.      ",WIC,community
Marlboro WIC Program,"230 Maple Street, 1st floor, Marlboro, MA 01752",(508) 481-1605,Weekly hours     Monday:       8:30 am-4:30 pm      Tuesday:       11:30 am-7:00 pm      Thursday - Friday:       8:30 am-4:30 pm              Weekends Open 1 Saturday per month - please call for dates.      ,WIC,community
Methuen WIC Program,"141 Tenney Street, Methuen, MA 01844",(978) 681-4963,Weekly hours     Monday:       8:30 am-4:30 pm      Tuesday:       10:00 am-6:00 pm      Wednesday:       8:30 am-4:30 pm      Thursday:       10:00 am-6:00 pm      Friday:       8:30 am-4:30 pm              Weekend hours Open 1 Saturday a month.      ,WIC,community
Middleboro WIC Program,"23 Wareham Street, Middleboro, MA 02346",(508) 946-0632,    Tuesday:       9:00 am-4:30 pm          ,WIC,community
Milford WIC Program,"114 Water Street, Milford, MA 01757",(508) 634-8012,    Monday - Wednesday:       8:30 am-4:30 pm      Thursday:       11:30 am-7:30 pm      Friday:       8:30 am-4:00 pm          ,WIC,community
Millbury WIC Program,"20 Main Street, Millbury, MA 01527",(508) 865-5308,    Wednesday:       8:30 am-5:00 pm          ,WIC,community
New Bedford WIC Program main clinic,"874 Purchase St., New Bedford, MA 02740",(508) 997-1500,    Monday - Wednesday:       8:00 am-4:30 pm      Thursday:       10:00 am-6:30 pm      Friday:       8:00 am-4:30 pm          ,WIC,community
North Adams WIC Program,"71 Hospital Ave, North Adams, MA 01247",(413) 663-3012,Regular hours     Tuesday - Friday:       8:00 am-4:30 pm              1st and 3rd Tuesdays of the month     Tuesday:       10:00 am-6:30 pm              Saturdays Call for Saturday hours.      ,WIC,community
North Cambridge WIC Program,"266-B Rindge Avenue, Cambridge, MA 02140",(617) 575-5370,Regular hours     Wednesday:       8:30 am-5:00 pm      Friday:       8:00 am-4:30 pm              Non-typical hours Closed last Wednesday of the month.      ,WIC,community
North Central WIC Program main clinic,"375 Nichols Road, Fitchburg, MA 01420",(978) 345-6272,    Monday - Tuesday:       9:00 am-5:00 pm      Wednesday:       8:30 am-6:30 pm      Thursday - Friday:       8:30 am-4:30 pm          ,WIC,community
North Shore WIC Program main clinic,"20 Central Ave., Lynn, MA 01901",(781) 599-7290,    Monday:       8:30 am-6:30 pm      Tuesday - Friday:       8:30 am-5:00 pm      Saturday:       8:00 am-4:00 pm          ,WIC,community
North Suburban WIC Program main clinic,"239 Commercial St., Malden, MA 02148",(781) 338-7578,"Regular hours     Monday:       8:30 am-12:00 pm, 1:00 pm-4:00 pm      Tuesday:       8:30 am-7:00 pm      Wednesday:       8:30 am-4:00 pm      Thursday:       8:30 am-12:00 pm, 1:00 pm-4:00 pm      Friday:       8:30 am-4:00 pm              Weekends Open the 1st and 3rd Saturday of every month, 8:30 a.m.C12 p.m.      ",WIC,community
Northern Essex WIC Program main clinic,"10 Phoenix Row, Haverhill, MA 01832",(978) 374-2191,"Weekly Hours     Monday:       9:00 am-5:00 pm      Tuesday:       10:30 am-6:30 pm      Wednesday - Friday:       9:00 am-5:00 pm              Weekends Open 1 Saturday per month, 9 a.mC2 p.m.          Last Wednesday of each month Closed for a staff meeting.      ",WIC,community
Orleans - Outer Cape WIC - Main Site,"79 Finlay Road, Unit C, Orleans, MA 02653",(800) 675-1188,"Regular hours     Tuesday:       9:00 am-7:00 pm      Friday:       9:00 am-5:00 pm              Non-typical hours Open 1st &amp; 4th Thursdays 9 a.m.-2 p.m., 3rd Saturday 9 a.m.-4 p.m.      ",WIC,community
Peabody WIC Program,"85 Main Street, Suite 4, Peabody, MA 01960",(978) 531-0871,Weekly hours     Monday:       9:30 am-6:00 pm      Thursday - Friday:       8:30 am-5:00 pm              Weekends 1st and 3rd Saturday of each month - 8 a.m.-4 p.m.      ,WIC,community
Pittsfield WIC Program,"510 North St., Pittsfield, MA 01201",(413) 447-3495,Regular hours     Monday - Thursday:       8:00 am-4:30 pm              1st and 3rd Mondays of the month     Monday:       10:00 am-6:30 pm              Saturdays Call for Saturday hours      ,WIC,community
Plymouth North WIC Program,"10 Cordage Park Circle, Plymouth, MA 02360",508-778-5451,"2nd and 4th Thursday of the month, 9 a.m.-2 p.m.      ",WIC,community
Plymouth WIC Program main clinic,"123 Camelot Drive, Plymouth, MA 02360",(508) 747-4933,Weekly hours     Monday:       9:00 am-6:00 pm      Tuesday:       9:00 am-4:00 pm      Wednesday:       7:30 am-4:00 pm      Friday:       9:30 am-1:00 pm              Weekends Open every 1st Saturday per month. Please call for appointment availability.      ,WIC,community
Provincetown WIC Program,"49 Harry Kemp Way, Provincetown, MA 02657",(508) 240-0853,3rd Thursday 10:30 a.m.-4:30 p.m.      ,WIC,community
Quincy WIC Program main clinic,"121 Whitwell St., Quincy, MA 02169",(617) 376-8701,    Monday - Tuesday:       8:00 am-6:00 pm      Wednesday:       8:00 am-7:00 pm      Thursday - Friday:       8:00 am-4:00 pm          ,WIC,community
Revere WIC Program,"300 Ocean Ave, Revere, MA 02151",(781) 485-6040,"Weekly hours     Monday - Wednesday:       8:30 am-5:00 pm      Thursday:       8:30 am-7:00 pm      Friday:       8:30 am-3:00 pm              Weekends Open 2 Saturdays a month, 8:30 a.m.-1 p.m.      ",WIC,community
Rockland WIC Program,"Rockland Community Center, 394 Union Street, Rockland, MA 02370",(781) 878-0669,    Wednesday:       9:00 am-4:30 pm          ,WIC,community
Roslindale WIC Program,"4159 Washington Street, Roslindale, MA 02131",(617) 325-8404,    Tuesday:       8:30 am-5:00 pm      Wednesday:       10:00 am-5:00 pm      Thursday:       9:00 am-5:30 pm          ,WIC,community
Roxbury/South End WIC Program main clinic,"1290 Tremont St., 4th Floor, Roxbury, MA 02120",(617) 989-3055,    Monday - Friday:       8:30 am-8:00 pm      Saturday:       8:30 am-5:00 pm          ,WIC,community
Salem WIC Program,"35 Congress Street, Suite 220, Salem, MA 01970",(978) 744-2626,"Weekly hours     Monday:       9:30 am-6:00 pm      Tuesday - Wednesday:       8:30 am-5:00 pm      Friday:       8:30 am-5:00 pm              Weekends 2nd, 4th &amp; 5th Saturdays each month: 8 a.m.-4 p.m.      ",WIC,community
Somerville WIC Program,"366 Broadway, Somerville, MA 02145",(617) 575-5330,"Regular hours     Monday:       11:00 am-7:30 pm      Tuesday:       10:00 am-6:30 pm      Wednesday - Thursday:       8:30 am-5:00 pm      Friday:       8:00 am-4:30 pm              Non-typical hours 1st Saturday of the month, 8 am - 4 pm; closed last Wednesday of the month.      ",WIC,community
South Central WIC Program main clinic,"61 Pine St., Southbridge, MA 01550",(508) 765-0139,    Monday:       10:00 am-6:00 pm      Tuesday - Wednesday:       8:30 am-4:30 pm      Thursday:       11:30 am-7:30 pm      Friday:       8:30 am-4:00 pm          ,WIC,community
South Cove WIC Program main clinic,"145 South St., Boston, MA 02111",(617) 521-6777,    Monday - Friday:       9:00 am-5:00 pm      Saturday:       9:00 am-1:00 pm          ,WIC,community
Springfield - Mason Square WIC Program,"11 Wilbraham Rd., 2nd floor, Springfield, MA 01109",(413) 734-3133,    Monday - Tuesday:       9:00 am-5:00 pm      Wednesday:       10:00 am-6:30 pm      Thursday:       9:00 am-5:00 pm      Friday:       9:00 am-4:30 pm          ,WIC,community
Springfield North WIC Program main clinic,"1985 Main St., Springfield, MA 01103",(413) 737-8868,    Monday - Tuesday:       9:00 am-5:00 pm      Wednesday:       10:00 am-6:00 pm      Thursday - Friday:       9:00 am-5:00 pm          ,WIC,community
Springfield South WIC Program main clinic,"816 Main St., Springfield, MA 01105",(413) 693-1029 ext. 1,    Monday:       10:30 am-7:00 pm      Tuesday - Friday:       9:00 am-5:30 pm          ,WIC,community
Springfield WIC Program,"1771 Boston Road, Springfield, MA 01129",(413) 693-1029 option 3,Regular hours     Tuesday - Thursday:       8:30 am-5:00 pm              Closed for lunch 12:15 p.m.-1 p.m.      ,WIC,community
Taunton/Attleboro WIC Program main clinic,"1 Taunton Green, Lower level, Taunton, MA 02780",(508) 823-6346 ext. 227,"Weekly hours     Monday:       8:30 am-4:30 pm      Tuesday:       11:00 am-6:30 pm      Wednesday - Friday:       8:30 am-4:30 pm              Weekends Open every 3rd Saturday per month, 8:30 a.m.C4:30 p.m.      ",WIC,community
Waltham WIC Program,"32 South Street, Suite 201, Waltham, MA 02453",(781) 642-7194,    Monday:       8:30 am-4:30 pm      Tuesday:       11:30 am-7:00 pm      Wednesday - Friday:       8:30 am-4:30 pm          ,WIC,community
Ware WIC Program,"89 South Street, Ware, MA 01082",(413) 967-2163,Regular weekly hours     Monday - Tuesday:       8:30 am-4:30 pm      Friday:       8:30 am-4:00 pm              First Thursday of every month 11:30 a.m.-7:30 p.m.      ,WIC,community
Wareham WIC Program,"106 Main Street, Wareham, MA 02571",(508) 295-0056,    Monday:       10:30 am-6:30 pm      Thursday:       9:00 am-4:30 pm          ,WIC,community
Watertown WIC Program,"9 Russell Avenue, lower level, Watertown, MA 02472",(857) 523-2797,    Friday:       8:15 am-4:15 pm          ,WIC,community
Webster WIC Office,"228 Main Street, Webster, MA 01570",(508) 943-6183,"Weekly hours     Monday:       10:00 am-6:00 pm      Tuesday:       8:30 am-4:30 pm      Friday:       8:30 am-4:00 pm              Weekends Open 1 Saturday a month, 8 a.m.-12 p.m.      ",WIC,community
West Springfield WIC Program,"425 Union St., West Springfield, MA 01089",(413) 734-1381,    Monday:       8:30 am-5:00 pm      Tuesday:       9:00 am-5:00 pm      Friday:       9:00 am-5:00 pm          ,WIC,community
Whitinsville WIC Program,"84 Church Street, Whitinsville, MA 01588",(508) 234-5687,    Monday - Tuesday:       8:30 am-4:30 pm      Thursday:       11:30 am-7:30 pm          ,WIC,community
Worcester WIC Program main clinic,"199 Chandler St., Worcester, MA 01610",(508) 796-7000,Regular hours     Monday:       8:30 am-7:30 pm      Tuesday:       8:30 am-5:00 pm      Wednesday:       8:30 am-7:30 pm      Thursday - Friday:       8:30 am-5:00 pm              Non-typical hours Open the 2nd and 4th Saturday per month from 8 a.m.-1 p.m. Closed the 4th Thursday per month for staff meeting.      ,WIC,community
Worcester WIC Program C Mil Swan Site,"337 Mill Street, Worcester, MA 01602",(508) 755-4750,    Tuesday:       8:30 am-2:00 pm          ,WIC,community
Worcester WIC Program C Plumley Site,"16 Laurel Street, Worcester, MA 01608",(508) 799C9392,Regular hours     Monday - Friday:       8:30 am-5:00 pm              Non-typical hours Closed on the 4th Thursday of the month for staff meeting.      ,WIC,community
Worcester WIC Program- EMK Site,"19 Tacoma St., Worcester, MA 01605",(508) 853C2904,Regular hours     Monday:       8:30 am-5:00 pm      Tuesday:       8:30 am-7:00 pm      Wednesday - Thursday:       8:30 am-5:00 pm      Friday:       8:30 am-3:00 pm              Non-typical hours Closed on the 4th Thursday of the month for staff meeting.      ,WIC,community
Brockton Transitional Assistance Office (DTA),"60 Main Street, Brockton, MA 02301",(508) 895-7000,Mon-Fri 8am-5pm,DTA office,Community
Dudley Square Transitional Assistance Office (DTA),"2201 Washington Street, Roxbury, MA 02119",(617) 989-6000,Mon-Fri 8am-5pm,DTA office,Community
EOHHS: Chelsea Center Transitional Assistance Office (DTA),"80 Everett Avenue, Chelsea, MA 02150",(617) 551-1700,Mon-Fri 8am-5pm,DTA office,Community
Fall River Transitional Assistance Office (DTA),"1567 North Main Street, Fall River, MA 02720",(508) 646-6200,Mon-Fri 8am-5pm,DTA office,Community
Fitchburg Transitional Assistance Office (DTA),"473 Main Street, Fitchburg, MA 01420",(978) 665-8700,Mon-Fri 8am-5pm,DTA office,Community
Framingham Transitional Assistance Office (DTA),"300 Howard Street, Framingham, MA 01702",(508) 661-6600,Mon-Fri 8am-5pm,DTA office,Community
Greenfield Transitional Assistance Office (DTA),"143 Munson Street, Unit #3, Greenfield, MA 01301",(413) 772-3400,Mon-Fri 8am-5pm,DTA office,Community
Holyoke Transitional Assistance Office (DTA),"72-100 Front Street, Holyoke, MA 01040",(413) 552-5400,Mon-Fri 8am-5pm,DTA office,Community
Hyannis Transitional Assistance Office (DTA),"181 North Street, Hyannis, MA 02601",(508) 862-6600,Mon-Fri 8am-5pm,DTA office,Community
Lawrence Transitional Assistance Office (DTA),"280 Merrimack Street, Lawrence, MA 01843",(978) 725-7100,Mon-Fri 8am-5pm,DTA office,Community
Lowell Transitional Assistance Office (DTA),"131 Davidson Street, Lowell, MA 01852",(978) 446-2400,Mon-Fri 8am-5pm,DTA office,Community
Malden Transitional Assistance Office (DTA),"245 Commercial Street, Malden, MA 02148",(781) 388-7300,Mon-Fri 8am-5pm,DTA office,Community
New Bedford Transitional Assistance Office (DTA),"160 West Rodney French Boulevard, New Bedford, MA 02744",(508) 961-2000,Mon-Fri 8am-5pm,DTA office,Community
Newmarket Square Transitional Assistance Office (DTA),"1010 Massachusetts Avenue, Boston, MA 02118",(617) 989-2200,Mon-Fri 8am-5pm,DTA office,Community
North Shore Transitional Assistance Office (DTA),"45 Congress Street, Suite 4120, Salem, MA 01970",(978) 825-7300,Mon-Fri 8am-5pm,DTA office,Community
Pittsfield Transitional Assistance Office (DTA),"160 North Street, Suite 201, Pittsfield, MA 01201",(413) 236-2000,Mon-Fri 8am-5pm,DTA office,Community
Plymouth Transitional Assistance Office (DTA),"61 Industrial Park Road, Plymouth, MA 02360",(508) 732-3100,Mon-Fri 8am-5pm,DTA office,Community
Quincy Transitional Assistance Office (DTA),"1515 Hancock Street, Suite 105, Quincy, MA 02169",(617) 249-8200,Mon-Fri 8am-5pm,DTA office,Community
Southbridge Transitional Assistance Office (DTA),"1 North Street, Southbridge, MA 01550",(508) 765-2400,Mon-Fri 8am-5pm,DTA office,Community
Springfield/Liberty Transitional Assistance Office (DTA),"95 Liberty Street, Springfield, MA 01103",(413) 858-1000,Mon-Fri 8am-5pm,DTA office,Community
Taunton Transitional Assistance Office (DTA),"21 Spring Street, Taunton, MA 02780",(508) 884-5300,Mon-Fri 8am-5pm,DTA office,Community
Worcester Transitional Assistance Office (DTA),"13 Sudbury Street, Worcester, MA 01609",(508) 767-3100,Mon-Fri 8am-5pm,DTA office,Community
Brighton ESL group," 40 Academy Hill Road,,", 617.782.6032, Monday 12:30-2:30pm Thursday 6:15-7:45pm, Adult Education ESL,Education
Central Library ESL group," 700 Boylston Street,,", 617.536.5400, Monday 1-3pm Tuesday 1-3pm Friday 10am-12pm, Adult Education ESL,Education
Connolly ESL group," 433 Centre Street, Jamaica Plain,", 617.522.1960, Thursday 10:30-11:30am (No Class 3/1) 3-4:30pm, Adult Education ESL,Education
East Boston ESL group," 365 Bremen Street,,", 617.569.0271, Monday 6:30-7:45pm Tuesday 1-2:30pm, Adult Education ESL,Education
Egleston Square ESL group," 2044 Columbus Ave,, Roxbury", 617.445.4340, Saturday 10-11:30am, Adult Education ESL,Education
Faneuil ESL group," 419 Faneuil Street, Brighton,", 617.782.6705, Wednesday 10:30am-12pm, Adult Education ESL,Education
Honan-Allston ESL group," 300 North Harvard Street, Allston,", 617.787.6313, Tuesday 2-4pm 4-5:30pm Wednesday 12-1:30pm 6-7:30pm Friday 10-11:30am, Adult Education ESL,Education
Jamaica Plain ESL group," 30 South Street, Jamaica Plain,", 617.524.2053, Tuesdays 2-3:30pm, Adult Education ESL,Education
Roslindale ESL group," 4246 Washington Street,,", 617.323.2343, Thursday 6-7:30pm, Adult Education ESL,Education
South End ESL group," 685 Tremont Street,,", 617.536.8241, Monday 4-5:30pm, Adult Education ESL,Education
West End ESL group," 151 Cambridge Street,,", 617.523.3957, Tuesday 1-2:30pm, Adult Education ESL,Education
West Roxbury ESL group," 1961 Centre Street,,", 617.325.3147, Monday 6:15-7:45pm Thursday 6-7:30pm, Adult Education ESL,Education
The Museum of Fine Arts (MFA)," 465 Huntington Ave, Boston,02115",, Wed after 4pm, Museums,Education
Harvard Museum of Natural History," 26 Oxford Street, Cambridge,02138",,Sun 9am-12pm Sep-May Wed 3-5pm, Museums,Education
Peabody Museum of Archaeology and Ethnology," 11 Divinity Avenue, Cambridge,02138",,Sun 9am-12pm Sep-May Wed 3-5pm, Museums,Education
The Institute of Contempory Art (ICA)," 100 Northern Ave, Boston,02210",, Thu 5-9pm, Museums,Education
Fuller Craft Museum," 455 Oak Street, Brockton,02301",, Thu 5-9pm, Museums,Education
Boston Children¨¹s Museum," 308 Congress Street, Boston,02210",, Fri 5-9pm, Museums,Education
Harvard Art Museum," 32 Quincy Street, Cambridge,02138",, Sat 10am-12pm, Museums,Education
Boston Fire Museum," 344 Congress Street, Boston,02110",, Sat 11-6pm, Museums,Education
Worcester Art Museum," 55 Salisbury Street, Worcester,01609",, Sat 10am-12pm, Museums,Education
U.S.S. Constitution," Building 22 Charlestown Navy Yard,  Charlestown,02129",,, Museums,Education
Boston University Art Gallery," 855 Commonwealth Ave, Boston,02215",,, Museums,Education
Commonwealth Museum," 220 Morrissey Blvd, Boston,02125",, May-Oct 9-3pm, Museums,Education
Otis House," 141 Cambridge Street, Boston,02114",,, Museums,Education
Waterworks Museum," 2450 Beacon Street, Boston,02467",,, Museums,Education
Museum of Bad Art," 46 Tappan Street, Brookline,02445",, Mon-Thu 10-10, Museums,Education
The Art Complex Museum," 189 Alden Street, Duxbury,02331",, Wed-Sun 1-4pm, Museums,Education
ABCD: Allston Brighton Neighborhood Opportunity Center," 640 Washington St, Brighton,02135", 617-903-3640, CALL FOR APPOINTMENT, tax resources,Finance
Brighton Branch of the Boston Public Library," 40 Academy Hill Road, Brighton,02135", 855-687-7345 mail@cfmp.us, Mondays: 4pm-8pm Thursdays: 1pm-8pm Saturdays: 9am C 5pm, tax resources,Finance
Allston Brighton Child and Family Services Center," 406 Cambridge Street, Allston,02134", 855-687-7345 mail@cfmp.us, Fridays: 10am-6pm, tax resources,Finance
DEAF Inc.," 215 Brighton Avenue, Allston,02134", 617-505-4820 VP/Voice 617-254-4041 TTY/V lsiedman@deafinconline.org, CALL FOR APPOINTMENT, tax resources,Finance
High Street Family Learning Center," 22 High Street, Brookline,02445", 855-687-7345 mail@cfmp.us, Tuesdays: 4pm-7pm, tax resources,Finance
Trustman Family Learning Center,"341R Saint Paul Street, Brookline,02446", 855-687-7345 mail@cfmp.us, Wednesdays: 3pm-6pm, tax resources,Finance
BHA Charlestown Works," 76 Monument Street, Charlestown,02129", 617-635-5221, CALL FOR APPOINTMENT, tax resources,Finance
Boston Chinatown Neighborhood Center," 38 Ash Street, Chinatown,02111", 617-635-5129 ext 0 EITC@BCNC.net, Saturdays: 10am-3:30pm, tax resources,Finance
ABCD: Dorchester Neighborhood Service Center," 110 Claybourne Street, Dorchester,02124",617-288-2700, CALL FOR APPOINTMENT, tax resources,Finance
Codman Square Health Center," 450 Washington Street, Dorchester,02124", 617-825-9660, Mondays & Tuesdays: 4pm-8pm Saturdays: 9am-1pm, tax resources,Finance
DotHouse Health," 1353 Dorchester Ave, Dorchester,02122", 617-288-3230, Wednesdays & Thursdays: 4pm-8pm Saturdays: 9am-1pm, tax resources,Finance
ABCD: Robert M. Coard Building," 178 Tremont Street, Boston,02111", 617-348-6583, CALL FOR APPOINTMENT, tax resources,Finance
JVS Center for Economic Opportunity," 75 Federal Street, Boston,02110", 617-399-3235 https://freetaxhelp.us/-/jvs, CALL FOR APPOINTMENT, tax resources,Finance
ABCD: East Boston APAC," 21 Meridian Street, East Boston,02128", 617-567-8857, CALL FOR APPOINTMENT, tax resources,Finance
NOAH: Neighborhood of Affordable Housing," 143 Border Street, East Boston,02128", 617-567-5882, CALL FOR APPOINTMENT, tax resources,Finance
ABCD: Parker Hill/Fenway Neighborhood Service Center," 714 Parker Street, Fenway,02120",617-445-6000, CALL FOR APPOINTMENT, tax resources,Finance
ABCD: Jamaica Plain APAC," 30 Bickford Street, Jamaica Plain,02130", 617-522-4250, CALL FOR APPOINTMENT!, tax resources,Finance
StreetCred at Boston Children¡¯s Martha Eliot Health Center," 75 Bickford St, Jamaica Plain,02130", 617-453-3880 x103 mehc@mystreetcred.org, SCHEDULE YOUR APPOINTMENT ONLINE: www.snapappointments.com/streetcred, tax resources,Finance
ABCD: Mattapan Family Service Center," 535 River Street, Mattapan,02126", 617-298-2045, CALL FOR APPOINTMENT, tax resources,Finance
1199 SEIU," 108 Myrtle Street, Quincy,02171", 617-284-1199, CALL FOR APPOINTMENT, tax resources,Finance
ABCD: Roxbury/North Dorchester Neighborhood Opportunity Center," 565 Warren Street, Roxbury,02121", 617-442-5900, CALL FOR APPOINTMENT, tax resources,Finance
Roxbury Center for Financial Empowerment," 7 Palmer Street, Roxbury,02119", 617-541-2671 RCFTaxprep@boston.gov, Tuesdays & Thursdays: 3pm-7pm Saturdays: 9am-1pm, tax resources,Finance
Urban Edge," 1542 Columbus Avenue, Roxbury, 02119", 617-989-9323 FreeTaxPrep@UrbanEdge.org, Tuesdays & Thursdays: 5pm-8pm Saturdays: 9am-12pm, tax resources,Finance
ABCD: South Boston Action Center," 424 West Broadway, South Boston,02127", 617-269-5160 ext 0, CALL FOR APPOINTMENT!, tax resources,Finance
ABCD: South End Neighborhood Center," 554 Columbus Avenue, South End,02118", 617-267-7400, CALL FOR APPOINTMENT!, tax resources,Finance
StreetCred at South End Community Health Center," 1601 Washington Street, Boston,02118", 617-453-3880 x106 sechc@mystreetcred.org, SCHEDULE YOUR APPOINTMENT ONLINE: www.snapappointments.com/streetcred, tax resources,Finance
StreetCred at Boston Medical Center," 850 Harrison Avenue, Boston,02118", 617-453-3880 x101 bmc@mysteetcred.org, SCHEDULE YOUR APPOINTMENT ONLINE: www.snapappointments.com/streetcred, tax resources,Finance
Adams Street Public Library," 690 Adams Street, Dorchester,02122", 617.436.6900, Mon Tue Wed Thu 3:30-5:30pm, Tutoring Programs,Education
Codman Square Public Library," 690 Washington Street, Dorchester,02124", 617.436.8214, Mon Tue Wed Thu 3:30-5:30pm, Tutoring Programs,Education
Connolly Public Library," 433 Centre Street, Jamaica Plain,02130", 617.522.1960, Mon Tue Wed Thu 3:30-5:30pm, Tutoring Programs,Education
East Boston Public Library,"365 Bremen Street, East Boston,02128", 617.569.0271, Mon Tue Wed Thu 3:30-5:30pm, Tutoring Programs,Education
Egleston Square Public Library,"2044 Columbus Avenue, Roxbury,02119", 617.445.4340, Mon Tue Wed Thu 3:30-5:30pm, Tutoring Programs,Education
Faneuil Public Library," 419 Faneuil Street, Brighton,02135", 617.782.6705, Mon Tue Wed Thu 3:30-5:30pm, Tutoring Programs,Education
Fields Corner Public Library," 1520 Dorchester Avenue, Dorchester,02122", 617.436.2155, Mon Tue Wed Thu 3:30-5:30pm, Tutoring Programs,Education
Grove Hall Public Library," 41 Geneva Avenue, Dorchester,02121", 617.427.3337, Mon Tue Wed Thu 3:30-5:30pm, Tutoring Programs,Education
Hyde Park Public Library,"35 Harvard Avenue, Hyde Park,02136", 617.361.2524, Mon Tue Wed Thu 3:30-5:30pm, Tutoring Programs,Education
Jamaica Plain Public Library,"30 South Street, Jamaica Plain,02130",  617.524.2053 , Mon Tue Wed Thu 3:30-5:30pm, Tutoring Programs,Education
Lower Mills Public Library," 27 Richmond Street, Dorchester,02124", 617.298.7841, Mon Tue Wed Thu 3:30-5:30pm, Tutoring Programs,Education
Mabapan Public Library," 1350 Blue Hill Avenue, Mabapan,02126", 617.298.9218, Mon Tue Wed Thu 3:30-5:30pm, Tutoring Programs,Education
Parker Hill Music Room of Mission Church Public Library," 1545 Tremont St,,",  617.859.2325,Tue Thu 3:30-5:30pm, Tutoring Programs,Education
Roslindale Public Library," 4246 Washington Street, Roslindale,02131", 617.323.2343, Mon Tue Wed Thu 3:30-5:30pm, Tutoring Programs,Education
South End Public Library," 685 Tremont Street, Boston,02118", 617.536.8241, Mon Tue Wed Thu 3:30-5:30pm, Tutoring Programs,Education
Uphams Corner Public Library," 500 Columbia Road, Dorchester,02125", 617.265.0139, Mon Tue Wed Thu 3:30-5:30pm, Tutoring Programs,Education
West Roxbury Public Library," 1961 Centre Street, West Roxbury,02132",  617.325.3147, Mon Tue Wed Thu 3:30-5:30pm, Tutoring Programs,Education